OBJECT_NAME,OBJECT_ID,EPOCH,MEAN_MOTION,ECCENTRICITY,INCLINATION,RA_OF_ASC_NODE,ARG_OF_PERICENTER,MEAN_ANOMALY,EPHEMERIS_TYPE,CLASSIFICATION_TYPE,NORAD_CAT_ID,ELEMENT_SET_NO,REV_AT_EPOCH,BSTAR,MEAN_MOTION_DOT,MEAN_MOTION_DDOT
IRIDIUM 138,2017-083B,2026-07-16T19:53:06.967104,14.34219023,.0002057,86.4000,309.3253,92.7490,267.3941,0,U,43071,999,44838,.42643E-4,.139E-5,0
IRIDIUM 116,2017-083C,2026-07-16T20:47:55.072896,14.34218053,.000249,86.3985,309.5947,97.7737,262.3742,0,U,43072,999,44842,.37176E-4,.124E-5,0
IRIDIUM 130,2017-083D,2026-07-16T20:02:15.372096,14.34218333,.0002296,86.3994,309.8863,100.7272,259.4182,0,U,43073,999,44836,.42726E-4,.139E-5,0
IRIDIUM 151,2017-083E,2026-07-16T19:25:43.203648,14.34218196,.0002259,86.3987,309.6771,95.0471,265.0983,0,U,43074,999,44838,.30524E-4,.105E-5,0
IRIDIUM 134,2017-083F,2026-07-16T20:20:31.210080,14.34217838,.0002243,86.3989,309.6695,95.1947,264.9505,0,U,43075,999,44835,.96218E-5,.47E-6,0
IRIDIUM 137,2017-083G,2026-07-16T18:58:19.281216,14.34217959,.0002677,86.3991,309.7869,93.1681,266.9821,0,U,43076,999,44841,.11711E-4,.53E-6,0
IRIDIUM 141,2017-083H,2026-07-16T20:29:39.149376,14.34217867,.0002172,86.3985,309.5893,93.6034,266.5410,0,U,43077,999,44842,.21486E-4,.8E-6,0
IRIDIUM 153,2017-083J,2026-07-17T03:43:07.396608,14.34217873,.0002127,86.3958,277.9426,94.9263,265.2175,0,U,43078,999,44957,.13289E-4,.57E-6,0
IRIDIUM 131,2017-083K,2026-07-16T08:28:07.161024,14.34218322,.0002226,86.3990,309.9867,94.3683,265.7768,0,U,43079,999,44828,.24205E-4,.88E-6,0
IRIDIUM 144,2018-030A,2026-07-17T03:52:15.348000,14.34218360,.00024,86.3955,277.8683,96.6450,263.5019,0,U,43249,999,43443,.24429E-4,.88E-6,0
IRIDIUM 149,2018-030B,2026-07-17T04:01:23.420352,14.34218029,.000225,86.3955,277.8323,93.4740,266.6713,0,U,43250,999,43445,.18228E-4,.71E-6,0
IRIDIUM 157,2018-030C,2026-07-17T04:28:47.570016,14.34218501,.0002269,86.3958,277.8784,94.1705,265.9750,0,U,43251,999,43443,.42136E-4,.138E-5,0
IRIDIUM 140,2018-030D,2026-07-17T04:56:11.628960,14.34218117,.0002252,86.3957,277.8828,95.7254,264.4198,0,U,43252,999,43449,.43064E-4,.14E-5,0
IRIDIUM 145,2018-030E,2026-07-17T04:37:55.427232,14.34217625,.0002571,86.3956,277.8601,99.6724,260.4762,0,U,43253,999,43442,.28338E-4,.99E-6,0
IRIDIUM 146,2018-030F,2026-07-17T04:10:31.460736,14.34217594,.0002379,86.3957,277.8804,95.8415,264.3052,0,U,43254,999,43443,.14415E-4,.6E-6,0
IRIDIUM 148,2018-030G,2026-07-17T05:05:19.627008,14.34218503,.000234,86.3958,277.9079,92.9846,267.1617,0,U,43255,999,43447,.42983E-4,.14E-5,0
IRIDIUM 142,2018-030H,2026-07-17T04:19:39.469152,14.34217884,.0002444,86.3954,277.8091,96.1549,263.9925,0,U,43256,999,43443,.11405E-4,.52E-6,0
IRIDIUM 150,2018-030J,2026-07-17T05:14:27.356352,14.34217456,.000229,86.3958,277.9106,96.4130,263.7327,0,U,43257,999,43446,.46881E-4,.151E-5,0
IRIDIUM 143,2018-030K,2026-07-16T18:44:15.524736,14.34217816,.0002344,86.3961,278.1873,96.7905,263.3557,0,U,43258,999,43433,.247E-4,.89E-6,0
IRIDIUM 161,2018-047C,2026-07-17T02:52:40.669824,14.43276258,.0002228,86.4460,75.9530,80.8974,279.2479,0,U,43478,999,42945,.39365E-4,.153E-5,0
IRIDIUM 152,2018-047D,2026-07-16T18:04:58.285632,14.34218453,.0002152,86.3934,75.9676,84.1865,275.9576,0,U,43479,999,42672,.13958E-4,.59E-6,0
IRIDIUM 147,2018-047E,2026-07-16T18:14:06.271584,14.34217420,.0002276,86.3937,75.9707,88.5156,271.6301,0,U,43480,999,42672,.18278E-4,.71E-6,0
IRIDIUM 110,2018-047F,2026-07-16T23:24:38.061792,14.34219041,.0002078,86.3939,75.9732,77.6883,282.4545,0,U,43481,999,42674,.44308E-4,.144E-5,0
IRIDIUM 162,2018-047G,2026-07-17T02:43:36.482016,14.43279058,.0002195,86.4458,75.8462,87.1760,272.9692,0,U,43482,999,42944,.45904E-4,.175E-5,0
IRIDIUM 160,2018-061A,2026-07-16T15:24:46.431648,14.34217435,.000223,86.3939,44.4763,86.8473,273.2978,0,U,43569,999,41759,.38231E-4,.127E-5,0
IRIDIUM 166,2018-061B,2026-07-16T14:20:50.496288,14.34217755,.0002284,86.3938,44.4451,89.8451,270.3007,0,U,43570,999,41761,.83983E-5,.43E-6,0
IRIDIUM 158,2018-061C,2026-07-16T23:37:58.437696,14.34217889,.0002103,86.3938,44.2926,88.2698,271.8739,0,U,43571,999,41763,.13505E-4,.58E-6,0
IRIDIUM 165,2018-061D,2026-07-17T00:14:30.575040,14.34217293,.0002278,86.3939,44.3292,90.1879,269.9578,0,U,43572,999,41766,.69316E-5,.39E-6,0
IRIDIUM 155,2018-061E,2026-07-16T23:19:42.478752,14.34217570,.000214,86.3937,44.2133,89.6600,270.4841,0,U,43573,999,41762,.92371E-5,.46E-6,0
IRIDIUM 154,2018-061F,2026-07-17T00:32:46.461408,14.34217536,.0002302,86.3940,44.3267,90.0435,270.1025,0,U,43574,999,41768,.67638E-5,.39E-6,0
IRIDIUM 163,2018-061G,2026-07-17T00:05:22.542432,14.34217152,.000212,86.3936,44.2489,85.6166,274.5272,0,U,43575,999,41765,-.33167E-5,.1E-6,0
